IRIDIUM 119             
1 42959U 17061E   23342.55433852  .00000272  00000+0  90040-4 0  9990
2 42959  86.3984  50.4004 0002317 101.4704 258.6752 14.34217788322717
IRIDIUM 107             
1 42960U 17061F   23343.27105103  .00000217  00000+0  70358-4 0  9996
2 42960  86.3982  50.1162 0002479  96.2622 263.8856 14.34217223322838
IRIDIUM 132             
1 42961U 17061G   23343.27738927  .00000266  00000+0  87793-4 0  9998
2 42961  86.3982  50.0995 0002432  95.4650 264.6823 14.34217544322821
IRIDIUM 136             
1 42962U 17061H   23342.26258022  .00000311  00000+0  10414-3 0  9996
2 42962  86.3982  50.5257 0001996 102.6304 257.5115 14.34217273322698
IRIDIUM 139             
1 42963U 17061J   23342.26892534  .00000256  00000+0  84393-4 0  9995
2 42963  86.3985  50.5707 0002412  96.7302 263.4169 14.34216498322702
IRIDIUM 125             
1 42964U 17061K   23343.16321630  .00000266  00000+0  88021-4 0  9993
2 42964  86.3986  50.2413 0002534 103.2558 256.8921 14.34224003322845
IRIDIUM 135             
1 43070U 17083A   23343.06758664  .00000217  00000+0  70432-4 0  9999
2 43070  86.3963 346.9888 0002163  83.6923 276.4519 14.34213263312122
IRIDIUM 138             
1 43071U 17083B   23342.53481213  .00000304  00000+0  10162-3 0  9994
2 43071  86.3954 346.9532 0002348  97.6326 262.5136 14.34216194312033
